OBJECT_NAME,OBJECT_ID,EPOCH,MEAN_MOTION,ECCENTRICITY,INCLINATION,RA_OF_ASC_NODE,ARG_OF_PERICENTER,MEAN_ANOMALY,EPHEMERIS_TYPE,CLASSIFICATION_TYPE,NORAD_CAT_ID,ELEMENT_SET_NO,REV_AT_EPOCH,BSTAR,MEAN_MOTION_DOT,MEAN_MOTION_DDOT
OSCAR 7 (AO-7),1974-089B,2026-07-08T06:40:41.772864,12.53698403,.00126652,101.9901,202.7446,91.1310,280.1318,0,U,7530,999,36316,.16595231E-4,-.44E-6,0
PHASE 3B (AO-10),1983-058B,2026-07-08T05:57:58.960512,2.05869766,.60038265,25.9305,216.0918,121.4539,310.7883,0,U,14129,999,29592,0,.202E-5,0
UOSAT 2 (UO-11),1984-021B,2026-07-08T08:43:59.565504,14.90837388,.0009135,97.8071,154.7040,110.1056,250.1146,0,U,14781,999,26028,.99155653E-4,.921E-5,0
LUSAT (LO-19),1990-005G,2026-07-08T07:43:27.312960,14.34129344,.00122823,98.8846,211.7092,140.1931,220.0156,0,U,20442,999,90542,.39838809E-4,.65E-6,0
EYESAT A (AO-27),1993-061C,2026-07-08T11:11:41.303328,14.30947887,.00091133,98.6871,256.8713,44.2914,315.8996,0,U,22825,999,71004,.34793897E-4,.47E-6,0
ITAMSAT (IO-26),1993-061D,2026-07-08T10:32:53.789280,14.31375362,.00093578,98.6819,256.7640,28.4497,331.7195,0,U,22826,999,71035,.35986231E-4,.51E-6,0
RADIO ROSTO (RS15),1994-085A,2026-07-08T11:45:40.481568,11.27583468,.01566714,64.8164,268.7646,359.9443,0.1440,0,U,23439,999,29830,.12009707E-3,-.38E-6,0
JAS-2 (FO-29),1996-046B,2026-07-08T12:43:07.068288,13.53275122,.03506207,98.5224,35.4766,41.2059,321.4991,0,U,24278,999,47605,.2957871E-4,-.5E-7,0
TECHSAT 1B (GO-32),1998-043D,2026-07-08T10:02:15.243936,14.24432447,.00020152,99.0079,182.7133,125.8911,234.2454,0,U,25397,999,45435,.37222759E-4,.39E-6,0
ISS (ZARYA),1998-067A,2026-07-08T11:25:36.904512,15.48944488,.00066744,51.6304,194.7265,271.3265,88.6959,0,U,25544,999,57505,.10439061E-3,.5295E-4,0
PCSAT (NO-44),2001-043C,2026-07-08T11:05:25.916928,14.31963214,.00059773,67.0487,189.2445,266.0895,93.9524,0,U,26931,999,29349,.5564841E-4,.66E-6,0
SAUDISAT 1C (SO-50),2002-058C,2026-07-08T01:24:59.474880,14.83089154,.00747268,64.5519,64.4071,258.5866,100.6840,0,U,27607,999,26755,.85741405E-4,.576E-5,0
CUTE-1 (CO-55),2003-031E,2026-07-08T11:06:19.636128,14.24348709,.00106666,98.6739,197.7541,120.0495,240.1743,0,U,27844,999,19470,.11365069E-3,.219E-5,0
CUBESAT XI-IV (CO-57),2003-031J,2026-07-08T11:05:05.892000,14.23632050,.00102587,98.6772,197.4488,137.0463,223.1519,0,U,27848,999,19440,.99678022E-4,.184E-5,0
MOZHAETS 4 (RS22),2003-042A,2026-07-08T14:36:10.575072,14.73505398,.00107282,98.3481,14.5734,194.5510,256.7000,0,U,27939,999,21870,.39077708E-4,.2E-5,0
CUBESAT XI-V,2005-043F,2026-07-08T09:32:36.268800,14.72690312,.00150041,98.3007,345.4679,135.1728,225.0694,0,U,28895,999,10487,.17854786E-3,.1087E-4,0
CUTE-1.7+APD II (CO-65),2008-021C,2026-07-08T12:38:23.074944,15.09660225,.00075047,97.8287,171.3930,326.7676,33.3080,0,U,32785,999,98841,.18802779E-3,.296E-4,0
SEEDS II (CO-66),2008-021J,2026-07-08T11:28:54.444288,15.33506492,.00022906,97.7528,188.4040,172.4327,187.6949,0,U,32791,999,99055,.41830987E-3,.13473E-3,0
YUBILEINY (RS30),2008-025A,2026-07-08T12:08:06.286848,12.43180284,.00185228,82.5058,342.1777,264.5456,95.3511,0,U,32953,999,82234,-.89382384E-4,-.3E-7,0
KKS-1 (KISEKI),2009-002H,2026-07-08T12:11:38.016960,14.83178657,.00069027,98.1179,112.2882,212.5803,147.4985,0,U,33499,999,93935,.13188371E-3,.1021E-4,0
SWISSCUBE,2009-051B,2026-07-08T04:08:27.012768,14.62521876,.00074785,98.4017,97.4251,138.1087,222.0687,0,U,35932,999,89222,.15442235E-3,.734E-5,0
BEESAT-1,2009-051C,2026-07-08T12:50:40.138656,14.61755033,.00057267,98.3944,97.3846,147.6322,212.5231,0,U,35933,999,89230,.1313649E-3,.606E-5,0
ITUPSAT1,2009-051E,2026-07-08T13:04:29.830080,14.60472478,.00076108,98.4027,96.5634,162.4704,197.6760,0,U,35935,999,89185,.12544193E-3,.56E-5,0
XIWANG-1 (HOPE-1),2009-072B,2026-07-08T12:34:02.000064,13.16441086,.00073468,100.4034,143.0157,179.9266,180.1849,0,U,36122,999,79581,.68475943E-3,.217E-5,0
O/OREOS (USA 219),2010-062C,2026-07-08T13:24:43.063200,14.93835514,.00135778,71.9709,31.9247,18.1485,342.0167,0,U,37224,999,11983,.14039253E-3,.143E-4,0
JUGNU,2011-058B,2026-07-08T02:50:30.354432,14.13782065,.00183589,19.9588,181.2607,307.9643,119.1069,0,U,37839,999,76199,.61883531E-4,.386E-5,0
SRMSAT,2011-058D,2026-07-08T08:28:30.297216,14.11579975,.00118782,19.9723,291.3610,76.6616,325.6645,0,U,37841,999,76081,.50022429E-4,.357E-5,0
STRAND-1,2013-009E,2026-07-08T05:18:09.889056,14.37175978,.00090081,98.3931,8.9384,160.5108,199.6425,0,U,39090,999,70008,.85060761E-4,.21E-5,0
ZACUBE-1 (TSHEPISOSAT),2013-066B,2026-07-07T22:28:29.343072,15.01306371,.00435451,97.8020,151.3770,178.4838,181.6526,0,U,39417,999,68384,.11193336E-3,.1404E-4,0
GOMX-1,2013-066Q,2026-07-08T11:57:51.079968,14.69531389,.01288731,97.6476,28.6162,9.7097,350.6555,0,U,39430,999,67304,.16191526E-3,.1039E-4,0
