OSCAR 7 (AO-7)          
1 07530U 74089B   26189.27826126 -.00000044  00000+0  16595-4 0  9991
2 07530 101.9901 202.7446 0012665  91.1310 280.1318 12.53698403363161
PHASE 3B (AO-10)        
1 14129U 83058B   26189.24859908  .00000202  00000+0  00000+0 0  9994
2 14129  25.9305 216.0918 6003826 121.4539 310.7883  2.05869766295926
UOSAT 2 (UO-11)         
1 14781U 84021B   26189.36388386  .00000921  00000+0  99156-4 0  9992
2 14781  97.8071 154.7040 0009135 110.1056 250.1146 14.90837388260286
LUSAT (LO-19)           
1 20442U 90005G   26189.32184390  .00000065  00000+0  39839-4 0  9998
2 20442  98.8846 211.7092 0012282 140.1931 220.0156 14.34129344905424
EYESAT A (AO-27)        
1 22825U 93061C   26189.46645027  .00000047  00000+0  34794-4 0  9999
2 22825  98.6871 256.8713 0009113  44.2914 315.8996 14.30947887710044
ITAMSAT (IO-26)         
1 22826U 93061D   26189.43951145  .00000051  00000+0  35986-4 0  9997
2 22826  98.6819 256.7640 0009357  28.4497 331.7195 14.31375362710351
RADIO ROSTO (RS15)      
1 23439U 94085A   26189.49005187 -.00000038  00000+0  12010-3 0  9995
2 23439  64.8164 268.7646 0156671 359.9443   0.1440 11.27583468298300
JAS-2 (FO-29)           
1 24278U 96046B   26189.52994292 -.00000005  00000+0  29579-4 0  9997
2 24278  98.5224  35.4766 0350620  41.2059 321.4991 13.53275122476055
TECHSAT 1B (GO-32)      
1 25397U 98043D   26189.41823199  .00000039  00000+0  37223-4 0  9995
2 25397  99.0079 182.7133 0002015 125.8911 234.2454 14.24432447454352
ISS (ZARYA)             
1 25544U 98067A   26189.47612158  .00005295  00000+0  10439-3 0  9990
2 25544  51.6304 194.7265 0006674 271.3265  88.6959 15.48944488575056
PCSAT (NO-44)           
1 26931U 01043C   26189.46210552  .00000066  00000+0  55648-4 0  9993
2 26931  67.0487 189.2445 0005977 266.0895  93.9524 14.31963214293495
SAUDISAT 1C (SO-50)     
1 27607U 02058C   26189.05902170  .00000576  00000+0  85741-4 0  9993
2 27607  64.5519  64.4071 0074726 258.5866 100.6840 14.83089154267559
CUTE-1 (CO-55)          
1 27844U 03031E   26189.46272727  .00000219  00000+0  11365-3 0  9995
2 27844  98.6739 197.7541 0010666 120.0495 240.1743 14.24348709194707
CUBESAT XI-IV (CO-57)   
1 27848U 03031J   26189.46187375  .00000184  00000+0  99678-4 0  9998
2 27848  98.6772 197.4488 0010258 137.0463 223.1519 14.23632050194408
MOZHAETS 4 (RS22)       
1 27939U 03042A   26189.60845573  .00000200  00000+0  39078-4 0  9995
2 27939  98.3481  14.5734 0010728 194.5510 256.7000 14.73505398218705
CUBESAT XI-V            
1 28895U 05043F   26189.39764200  .00001087  00000+0  17855-3 0  9995
2 28895  98.3007 345.4679 0015004 135.1728 225.0694 14.72690312104879
CUTE-1.7+APD II (CO-65) 
1 32785U 08021C   26189.52665596  .00002960  00000+0  18803-3 0  9995
2 32785  97.8287 171.3930 0007504 326.7676  33.3080 15.09660225988418
SEEDS II (CO-66)        
1 32791U 08021J   26189.47840792  .00013473  00000+0  41831-3 0  9997
2 32791  97.7528 188.4040 0002290 172.4327 187.6949 15.33506492990556
YUBILEINY (RS30)        
1 32953U 08025A   26189.50562832 -.00000003  00000+0 -89382-4 0  9992
2 32953  82.5058 342.1777 0018522 264.5456  95.3511 12.43180284822349
KKS-1 (KISEKI)          
1 33499U 09002H   26189.50807890  .00001021  00000+0  13188-3 0  9999
2 33499  98.1179 112.2882 0006902 212.5803 147.4985 14.83178657939354
SWISSCUBE               
1 35932U 09051B   26189.17253487  .00000734  00000+0  15442-3 0  9992
2 35932  98.4017  97.4251 0007478 138.1087 222.0687 14.62521876892227
BEESAT-1                
1 35933U 09051C   26189.53518679  .00000606  00000+0  13136-3 0  9996
2 35933  98.3944  97.3846 0005726 147.6322 212.5231 14.61755033892307
ITUPSAT1                
1 35935U 09051E   26189.54478970  .00000560  00000+0  12544-3 0  9999
2 35935  98.4027  96.5634 0007610 162.4704 197.6760 14.60472478891858
XIWANG-1 (HOPE-1)       
1 36122U 09072B   26189.52363426  .00000217  00000+0  68476-3 0  9992
2 36122 100.4034 143.0157 0007346 179.9266 180.1849 13.16441086795814
O/OREOS (USA 219)       
1 37224U 10062C   26189.55883175  .00001430  00000+0  14039-3 0  9992
2 37224  71.9709  31.9247 0013577  18.1485 342.0167 14.93835514119837
JUGNU                   
1 37839U 11058B   26189.11840688  .00000386  00000+0  61884-4 0  9994
2 37839  19.9588 181.2607 0018358 307.9643 119.1069 14.13782065761990
SRMSAT                  
1 37841U 11058D   26189.35312844  .00000357  00000+0  50022-4 0  9991
2 37841  19.9723 291.3610 0011878  76.6616 325.6645 14.11579975760817
STRAND-1                
1 39090U 13009E   26189.22094779  .00000210  00000+0  85061-4 0  9996
2 39090  98.3931   8.9384 0009008 160.5108 199.6425 14.37175978700089
ZACUBE-1 (TSHEPISOSAT)  
1 39417U 13066B   26188.93645073  .00001404  00000+0  11193-3 0  9998
2 39417  97.8020 151.3770 0043545 178.4838 181.6526 15.01306371683841
GOMX-1                  
1 39430U 13066Q   26189.49850787  .00001039  00000+0  16192-3 0  9993
2 39430  97.6476  28.6162 0128873   9.7097 350.6555 14.69531389673044
